OBJECT_NAME,OBJECT_ID,EPOCH,MEAN_MOTION,ECCENTRICITY,INCLINATION,RA_OF_ASC_NODE,ARG_OF_PERICENTER,MEAN_ANOMALY,EPHEMERIS_TYPE,CLASSIFICATION_TYPE,NORAD_CAT_ID,ELEMENT_SET_NO,REV_AT_EPOCH,BSTAR,MEAN_MOTION_DOT,MEAN_MOTION_DDOT
STARLINK-4128,2022-086H,2026-07-19T12:07:22.285920,15.31682765,.00005523,53.1618,318.3575,81.8697,278.2367,0,U,53249,999,22103,.61450912E-4,.1542E-4,0
STARLINK-4059,2022-086J,2026-07-19T14:00:01.999872,15.35400002,.00014753,53.1602,319.5554,68.2065,261.1439,0,U,53250,999,579,-.36766615E-3,-.13183E-3,0
STARLINK-4129,2022-086K,2026-07-19T14:15:51.123744,15.29357682,.00011071,53.1610,318.2794,80.2484,279.8642,0,U,53251,999,22102,.11206816E-4,-.32E-6,0
STARLINK-4132,2022-086L,2026-07-19T07:45:39.196512,15.31674283,.00005992,53.1594,319.3433,40.0334,320.0712,0,U,53252,999,22100,-.62871857E-4,-.2313E-4,0
STARLINK-4133,2022-086M,2026-07-19T14:14:55.530528,15.31711102,.00011117,53.1594,318.3134,66.3329,293.7789,0,U,53253,999,22102,-.1145276E-5,-.401E-5,0
STARLINK-4134,2022-086N,2026-07-18T19:06:15.214752,15.08831245,.00011742,53.1609,325.2905,87.0209,273.0917,0,U,53254,999,22087,.22019849E-4,.62E-6,0
STARLINK-4142,2022-086P,2026-07-19T01:05:12.942816,15.08833392,.00011486,53.1604,324.1577,91.2509,268.8614,0,U,53255,999,22089,-.15178197E-4,-.529E-5,0
STARLINK-4147,2022-086Q,2026-07-19T09:07:26.717376,15.08829439,.00011278,53.1591,322.6562,90.3466,269.7655,0,U,53256,999,22094,.20357865E-4,.36E-6,0
STARLINK-4144,2022-086R,2026-07-19T15:07:47.224416,15.08832038,.000102,53.1607,321.5300,85.8457,274.2651,0,U,53257,999,22098,.58230922E-4,.639E-5,0
STARLINK-4127,2022-086S,2026-07-19T12:07:36.820992,15.08832850,.00011005,53.1598,322.0922,93.7013,266.4104,0,U,53258,999,22096,.63151121E-4,.717E-5,0
STARLINK-4140,2022-086T,2026-07-18T17:34:43.813920,15.08838095,.00010958,53.1604,325.2068,90.7067,269.4050,0,U,53259,999,22085,.2771854E-5,-.244E-5,0
STARLINK-4062,2022-086V,2026-07-19T14:00:01.999872,15.34491136,.00014406,53.1593,319.7543,63.6441,44.4462,0,U,53261,999,584,.62989754E-3,.21027E-3,0
STARLINK-4085,2022-086W,2026-07-19T14:00:01.999872,15.33558113,.00009781,53.1586,319.6467,85.8229,38.0343,0,U,53262,999,579,-.53923767E-3,-.18069E-3,0
STARLINK-4130,2022-086X,2026-07-19T14:24:46.236096,15.29353551,.00012116,53.1589,318.0064,88.4180,271.6959,0,U,53263,999,22103,-.323791E-4,-.129E-4,0
STARLINK-3950,2022-086Y,2026-07-19T14:00:01.999872,15.29587730,.00024829,53.1595,320.3608,70.0902,66.0169,0,U,53264,999,584,.57492932E-3,.16389E-3,0
STARLINK-4097,2022-086Z,2026-07-19T14:00:01.999872,15.24972212,.00011392,53.1608,320.2795,60.9673,198.9150,0,U,53265,999,574,.83107377E-3,.20711E-3,0
STARLINK-4058,2022-086AA,2026-07-19T14:00:01.999872,15.33442005,.00013633,53.1589,319.7177,102.5032,64.1771,0,U,53266,999,584,.71427496E-3,.23112E-3,0
STARLINK-4060,2022-086AB,2026-07-19T14:00:01.999872,15.33399037,.0001489,53.1595,319.7668,82.5608,118.5875,0,U,53267,999,579,.85794435E-3,.27815E-3,0
STARLINK-4109,2022-086AC,2026-07-19T12:09:23.270112,15.26016020,.00016988,53.1605,318.9605,82.2017,277.9175,0,U,53268,999,22101,.31845424E-4,.487E-5,0
STARLINK-4122,2022-086AG,2026-07-19T14:19:53.466240,15.35397829,.00010472,53.1603,307.4634,80.7795,279.3326,0,U,53272,999,22117,.34938308E-4,.838E-5,0
STARLINK-4051,2022-086AH,2026-07-19T11:42:17.572896,15.33558100,.00014473,53.1594,308.3964,105.9846,254.1315,0,U,53273,999,22114,.75652052E-4,.2117E-4,0
STARLINK-4050,2022-086AJ,2026-07-19T11:35:02.446080,15.33544215,.00010664,53.1600,308.2481,70.9723,289.1394,0,U,53274,999,22115,.21419006E-4,.332E-5,0
STARLINK-4179,2022-086AK,2026-07-19T14:00:01.999872,15.35394738,.00013169,53.1592,308.6069,63.7918,148.2880,0,U,53275,999,575,-.1605713E-5,-.437E-5,0
STARLINK-4174,2022-086AL,2026-07-19T14:00:01.999872,15.34963102,.00011712,53.1596,307.8569,82.4931,116.1638,0,U,53276,999,587,.11449751E-2,.39212E-3,0
STARLINK-4178,2022-086AM,2026-07-19T13:48:06.533568,15.26520348,.00011134,53.1628,309.0855,78.4250,281.6874,0,U,53277,999,22114,.1020579E-3,.2357E-4,0
STARLINK-4180,2022-086AN,2026-07-19T11:50:41.641728,15.31696703,.00012355,53.1585,309.2104,84.6988,275.4155,0,U,53278,999,22113,-.19905946E-4,-.983E-5,0
STARLINK-4169,2022-086AQ,2026-07-19T14:00:01.999872,15.26419234,.00016564,53.1591,264.8376,112.6938,108.8637,0,U,53280,999,585,.27372269E-2,.72585E-3,0
STARLINK-4164,2022-086AS,2026-07-19T10:48:54.872640,15.33550564,.00012507,53.1602,308.3264,87.6208,272.4937,0,U,53282,999,22114,.37856029E-4,.873E-5,0
STARLINK-4175,2022-086AT,2026-07-19T10:55:26.552352,15.33586398,.00012326,53.1595,308.4711,102.2544,257.8597,0,U,53283,999,22114,.2648528E-3,.8358E-4,0
STARLINK-4173,2022-086AV,2026-07-19T14:00:01.999872,15.35235782,.00014634,53.1594,307.9416,39.7974,334.5405,0,U,53285,999,586,.98553508E-3,.33972E-3,0
