STARLINK-4128           
1 53249U 22086H   26200.50511905  .00001542  00000+0  61451-4 0  9999
2 53249  53.1618 318.3575 0000552  81.8697 278.2367 15.31682765221039
STARLINK-4059           
1 53250U 22086J   26200.58335648 -.00013183  00000+0 -36767-3 0  9994
2 53250  53.1602 319.5554 0001475  68.2065 261.1439 15.35400002  5797
STARLINK-4129           
1 53251U 22086K   26200.59434171 -.00000032  00000+0  11207-4 0  9998
2 53251  53.1610 318.2794 0001107  80.2484 279.8642 15.29357682221026
STARLINK-4132           
1 53252U 22086L   26200.32337033 -.00002313  00000+0 -62872-4 0  9998
2 53252  53.1594 319.3433 0000599  40.0334 320.0712 15.31674283221009
STARLINK-4133           
1 53253U 22086M   26200.59369827 -.00000401  00000+0 -11453-5 0  9990
2 53253  53.1594 318.3134 0001111  66.3329 293.7789 15.31711102221027
STARLINK-4134           
1 53254U 22086N   26199.79600943  .00000062  00000+0  22020-4 0  9999
2 53254  53.1609 325.2905 0001174  87.0209 273.0917 15.08831245220875
STARLINK-4142           
1 53255U 22086P   26200.04528869 -.00000529  00000+0 -15178-4 0  9993
2 53255  53.1604 324.1577 0001148  91.2509 268.8614 15.08833392220898
STARLINK-4147           
1 53256U 22086Q   26200.38017034  .00000036  00000+0  20358-4 0  9995
2 53256  53.1591 322.6562 0001127  90.3466 269.7655 15.08829439220948
STARLINK-4144           
1 53257U 22086R   26200.63040769  .00000639  00000+0  58231-4 0  9995
2 53257  53.1607 321.5300 0001020  85.8457 274.2651 15.08832038220986
STARLINK-4127           
1 53258U 22086S   26200.50528728  .00000717  00000+0  63151-4 0  9992
2 53258  53.1598 322.0922 0001100  93.7013 266.4104 15.08832850220963
STARLINK-4140           
1 53259U 22086T   26199.73245155 -.00000244  00000+0  27719-5 0  9992
2 53259  53.1604 325.2068 0001095  90.7067 269.4050 15.08838095220855
STARLINK-4062           
1 53261U 22086V   26200.58335648  .00021027  00000+0  62990-3 0  9997
2 53261  53.1593 319.7543 0001440  63.6441  44.4462 15.34491136  5848
STARLINK-4085           
1 53262U 22086W   26200.58335648 -.00018069  00000+0 -53924-3 0  9999
2 53262  53.1586 319.6467 0000978  85.8229  38.0343 15.33558113  5799
STARLINK-4130           
1 53263U 22086X   26200.60053514 -.00001290  00000+0 -32379-4 0  9992
2 53263  53.1589 318.0064 0001211  88.4180 271.6959 15.29353551221034
STARLINK-3950           
1 53264U 22086Y   26200.58335648  .00016389  00000+0  57493-3 0  9997
2 53264  53.1595 320.3608 0002482  70.0902  66.0169 15.29587730  5848
STARLINK-4097           
1 53265U 22086Z   26200.58335648  .00020711  00000+0  83107-3 0  9993
2 53265  53.1608 320.2795 0001139  60.9673 198.9150 15.24972212  5743
STARLINK-4058           
1 53266U 22086AA  26200.58335648  .00023112  00000+0  71427-3 0  9994
2 53266  53.1589 319.7177 0001363 102.5032  64.1771 15.33442005  5846
STARLINK-4060           
1 53267U 22086AB  26200.58335648  .00027815  00000+0  85794-3 0  9991
2 53267  53.1595 319.7668 0001489  82.5608 118.5875 15.33399037  5793
STARLINK-4109           
1 53268U 22086AC  26200.50651933  .00000487  00000+0  31845-4 0  9997
2 53268  53.1605 318.9605 0001698  82.2017 277.9175 15.26016020221019
STARLINK-4122           
1 53272U 22086AG  26200.59714660  .00000838  00000+0  34938-4 0  9994
2 53272  53.1603 307.4634 0001047  80.7795 279.3326 15.35397829221171
STARLINK-4051           
1 53273U 22086AH  26200.48770339  .00002117  00000+0  75652-4 0  9998
2 53273  53.1594 308.3964 0001447 105.9846 254.1315 15.33558100221143
STARLINK-4050           
1 53274U 22086AJ  26200.48266720  .00000332  00000+0  21419-4 0  9992
2 53274  53.1600 308.2481 0001066  70.9723 289.1394 15.33544215221155
STARLINK-4179           
1 53275U 22086AK  26200.58335648 -.00000437  00000+0 -16057-5 0  9991
2 53275  53.1592 308.6069 0001316  63.7918 148.2880 15.35394738  5752
STARLINK-4174           
1 53276U 22086AL  26200.58335648  .00039212  00000+0  11450-2 0  9992
2 53276  53.1596 307.8569 0001171  82.4931 116.1638 15.34963102  5879
STARLINK-4178           
1 53277U 22086AM  26200.57507562  .00002357  00000+0  10206-3 0  9997
2 53277  53.1628 309.0855 0001113  78.4250 281.6874 15.26520348221145
STARLINK-4180           
1 53278U 22086AN  26200.49353752 -.00000983  00000+0 -19906-4 0  9991
2 53278  53.1585 309.2104 0001235  84.6988 275.4155 15.31696703221136
STARLINK-4169           
1 53280U 22086AQ  26200.58335648  .00072585  00000+0  27372-2 0  9997
2 53280  53.1591 264.8376 0001656 112.6938 108.8637 15.26419234  5856
STARLINK-4164           
1 53282U 22086AS  26200.45063510  .00000873  00000+0  37856-4 0  9992
2 53282  53.1602 308.3264 0001250  87.6208 272.4937 15.33550564221145
STARLINK-4175           
1 53283U 22086AT  26200.45516843  .00008358  00000+0  26485-3 0  9996
2 53283  53.1595 308.4711 0001232 102.2544 257.8597 15.33586398221145
STARLINK-4173           
1 53285U 22086AV  26200.58335648  .00033972  00000+0  98554-3 0  9990
2 53285  53.1594 307.9416 0001463  39.7974 334.5405 15.35235782  5869
